{"type": "FeatureCollection", "features": [ {"type": "Feature", "properties": {"norad_id": 41175, "name": "GSAT0208 (GALILEO 11)", "group": "galileo", "lat": 14.677420030494995, "lon": -84.15084104798964, "alt_km": 23225.598345706003, "timestamp": "2025-12-21T18:54:58.759622+00:00", "meta": {"OBJECT_NAME": "GSAT0208 (GALILEO 11)", "OBJECT_ID": "2015-079B", "EPOCH": "2025-12-20T08:25:16.296384", "MEAN_MOTION": 1.70474393, "ECCENTRICITY": 0.00018076, "INCLINATION": 55.7157, "RA_OF_ASC_NODE": 106.1693, "ARG_OF_PERICENTER": 359.1842, "MEAN_ANOMALY": 0.7815, "EPHEMERIS_TYPE": 0, "CLASSIFICATION_TYPE": "U", "NORAD_CAT_ID": 41175, "ELEMENT_SET_NO": 999, "REV_AT_EPOCH": 6214, "BSTAR": 0, "MEAN_MOTION_DOT": -2e-08, "MEAN_MOTION_DDOT": 0}, "tle": {"line1": "1 41175U 15079B   25354.35088306 -.00000002  00000+0  00000+0 0  9993", "line2": "2 41175  55.7157 106.1693 0001807 359.1842   0.7815  1.70474393 62146"}}, "geometry": {"type": "Point", "coordinates": [-84.15084104798964, 14.677420030494995]}}, {"type": "Feature", "properties": {"norad_id": 41549, "name": "GSAT0211 (GALILEO 14)", "group": "galileo", "lat": 54.94122032995303, "lon": -50.412719420842635, "alt_km": 23211.331766806838, "timestamp": "2025-12-21T18:54:58.759648+00:00", "meta": {"OBJECT_NAME": "GSAT0211 (GALILEO 14)", "OBJECT_ID": "2016-030A", "EPOCH": "2025-12-20T11:24:03.549312", "MEAN_MOTION": 1.70473323, "ECCENTRICITY": 0.00041244, "INCLINATION": 55.1495, "RA_OF_ASC_NODE": 226.6105, "ARG_OF_PERICENTER": 17.8253, "MEAN_ANOMALY": 342.2987, "EPHEMERIS_TYPE": 0, "CLASSIFICATION_TYPE": "U", "NORAD_CAT_ID": 41549, "ELEMENT_SET_NO": 999, "REV_AT_EPOCH": 5962, "BSTAR": 0, "MEAN_MOTION_DOT": 7.1e-07, "MEAN_MOTION_DDOT": 0}, "tle": {"line1": "1 41549U 16030A   25354.47504108  .00000071  00000+0  00000+0 0  9997", "line2": "2 41549  55.1495 226.6105 0004124  17.8253 342.2987  1.70473323 59620"}}, "geometry": {"type": "Point", "coordinates": [-50.412719420842635, 54.94122032995303]}}, {"type": "Feature", "properties": {"norad_id": 41550, "name": "GSAT0210 (GALILEO 13)", "group": "galileo", "lat": -51.314910206586795, "lon": 166.14701853331067, "alt_km": 23226.71215759527, "timestamp": "2025-12-21T18:54:58.759663+00:00", "meta": {"OBJECT_NAME": "GSAT0210 (GALILEO 13)", "OBJECT_ID": "2016-030B", "EPOCH": "2025-12-18T23:20:38.714784", "MEAN_MOTION": 1.70473668, "ECCENTRICITY": 7.917e-05, "INCLINATION": 55.1496, "RA_OF_ASC_NODE": 226.6499, "ARG_OF_PERICENTER": 227.6007, "MEAN_ANOMALY": 132.5002, "EPHEMERIS_TYPE": 0, "CLASSIFICATION_TYPE": "U", "NORAD_CAT_ID": 41550, "ELEMENT_SET_NO": 999, "REV_AT_EPOCH": 5959, "BSTAR": 0, "MEAN_MOTION_DOT": 6.5e-07, "MEAN_MOTION_DDOT": 0}, "tle": {"line1": "1 41550U 16030B   25352.97267031  .00000065  00000+0  00000+0 0  9996", "line2": "2 41550  55.1496 226.6499 0000791 227.6007 132.5002  1.70473668 59599"}}, "geometry": {"type": "Point", "coordinates": [166.14701853331067, -51.314910206586795]}}, {"type": "Feature", "properties": {"norad_id": 41859, "name": "GSAT0207 (GALILEO 15)", "group": "galileo", "lat": 47.05278754181931, "lon": -121.8111509568893, "alt_km": 23223.120296812715, "timestamp": "2025-12-21T18:54:58.759675+00:00", "meta": {"OBJECT_NAME": "GSAT0207 (GALILEO 15)", "OBJECT_ID": "2016-069A", "EPOCH": "2025-12-20T10:10:36.025248", "MEAN_MOTION": 1.7047449, "ECCENTRICITY": 0.00023887, "INCLINATION": 55.3864, "RA_OF_ASC_NODE": 106.0375, "ARG_OF_PERICENTER": 318.3578, "MEAN_ANOMALY": 41.5905, "EPHEMERIS_TYPE": 0, "CLASSIFICATION_TYPE": "U", "NORAD_CAT_ID": 41859, "ELEMENT_SET_NO": 999, "REV_AT_EPOCH": 5635, "BSTAR": 0, "MEAN_MOTION_DOT": -2e-08, "MEAN_MOTION_DDOT": 0}, "tle": {"line1": "1 41859U 16069A   25354.42402807 -.00000002  00000+0  00000+0 0  9996", "line2": "2 41859  55.3864 106.0375 0002388 318.3578  41.5905  1.70474490 56357"}}, "geometry": {"type": "Point", "coordinates": [-121.8111509568893, 47.05278754181931]}}, {"type": "Feature", "properties": {"norad_id": 41860, "name": "GSAT0212 (GALILEO 16)", "group": "galileo", "lat": -22.004611086214776, "lon": -57.824907836366066, "alt_km": 23231.085045739284, "timestamp": "2025-12-21T18:54:58.759686+00:00", "meta": {"OBJECT_NAME": "GSAT0212 (GALILEO 16)", "OBJECT_ID": "2016-069B", "EPOCH": "2025-12-20T20:44:32.412192", "MEAN_MOTION": 1.70474703, "ECCENTRICITY": 0.00020505, "INCLINATION": 55.3843, "RA_OF_ASC_NODE": 106.0207, "ARG_OF_PERICENTER": 18.9555, "MEAN_ANOMALY": 341.0209, "EPHEMERIS_TYPE": 0, "CLASSIFICATION_TYPE": "U", "NORAD_CAT_ID": 41860, "ELEMENT_SET_NO": 999, "REV_AT_EPOCH": 5661, "BSTAR": 0, "MEAN_MOTION_DOT": 0, "MEAN_MOTION_DDOT": 0}, "tle": {"line1": "1 41860U 16069B   25354.86426403  .00000000  00000+0  00000+0 0  9991", "line2": "2 41860  55.3843 106.0207 0002050  18.9555 341.0209  1.70474703 56615"}}, "geometry": {"type": "Point", "coordinates": [-57.824907836366066, -22.004611086214776]}}, {"type": "Feature", "properties": {"norad_id": 41861, "name": "GSAT0213 (GALILEO 17)", "group": "galileo", "lat": -15.1822184245307, "lon": 95.2135772181226, "alt_km": 23220.327712157905, "timestamp": "2025-12-21T18:54:58.759697+00:00", "meta": {"OBJECT_NAME": "GSAT0213 (GALILEO 17)", "OBJECT_ID": "2016-069C", "EPOCH": "2025-12-17T17:05:43.699776", "MEAN_MOTION": 1.70474994, "ECCENTRICITY": 0.000259, "INCLINATION": 55.385, "RA_OF_ASC_NODE": 106.1156, "ARG_OF_PERICENTER": 282.1972, "MEAN_ANOMALY": 77.7328, "EPHEMERIS_TYPE": 0, "CLASSIFICATION_TYPE": "U", "NORAD_CAT_ID": 41861, "ELEMENT_SET_NO": 999, "REV_AT_EPOCH": 5642, "BSTAR": 0, "MEAN_MOTION_DOT": -9e-08, "MEAN_MOTION_DDOT": 0}, "tle": {"line1": "1 41861U 16069C   25351.71231134 -.00000009  00000+0  00000+0 0  9998", "line2": "2 41861  55.3850 106.1156 0002590 282.1972  77.7328  1.70474994 56421"}}, "geometry": {"type": "Point", "coordinates": [95.2135772181226, -15.1822184245307]}}, {"type": "Feature", "properties": {"norad_id": 41862, "name": "GSAT0214 (GALILEO 18)", "group": "galileo", "lat": -51.465321196254585, "lon": -14.015861116311932, "alt_km": 23223.875666639487, "timestamp": "2025-12-21T18:54:58.759708+00:00", "meta": {"OBJECT_NAME": "GSAT0214 (GALILEO 18)", "OBJECT_ID": "2016-069D", "EPOCH": "2025-12-21T09:04:04.029024", "MEAN_MOTION": 1.70474854, "ECCENTRICITY": 0.00016223, "INCLINATION": 55.385, "RA_OF_ASC_NODE": 106.0069, "ARG_OF_PERICENTER": 287.8422, "MEAN_ANOMALY": 72.112, "EPHEMERIS_TYPE": 0, "CLASSIFICATION_TYPE": "U", "NORAD_CAT_ID": 41862, "ELEMENT_SET_NO": 999, "REV_AT_EPOCH": 5661, "BSTAR": 0, "MEAN_MOTION_DOT": 2e-08, "MEAN_MOTION_DDOT": 0}, "tle": {"line1": "1 41862U 16069D   25355.37782441  .00000002  00000+0  00000+0 0  9999", "line2": "2 41862  55.3850 106.0069 0001622 287.8422  72.1120  1.70474854 56616"}}, "geometry": {"type": "Point", "coordinates": [-14.015861116311932, -51.465321196254585]}}, {"type": "Feature", "properties": {"norad_id": 43055, "name": "GSAT0215 (GALILEO 19)", "group": "galileo", "lat": -38.275679375935304, "lon": -166.96510989233224, "alt_km": 23223.981002739285, "timestamp": "2025-12-21T18:54:58.759719+00:00", "meta": {"OBJECT_NAME": "GSAT0215 (GALILEO 19)", "OBJECT_ID": "2017-079A", "EPOCH": "2025-12-21T06:45:20.639232", "MEAN_MOTION": 1.70474038, "ECCENTRICITY": 0.00012143, "INCLINATION": 55.1273, "RA_OF_ASC_NODE": 226.4024, "ARG_OF_PERICENTER": 349.3948, "MEAN_ANOMALY": 10.7111, "EPHEMERIS_TYPE": 0, "CLASSIFICATION_TYPE": "U", "NORAD_CAT_ID": 43055, "ELEMENT_SET_NO": 999, "REV_AT_EPOCH": 4995, "BSTAR": 0, "MEAN_MOTION_DOT": 7.3e-07, "MEAN_MOTION_DDOT": 0}, "tle": {"line1": "1 43055U 17079A   25355.28148888  .00000073  00000+0  00000+0 0  9996", "line2": "2 43055  55.1273 226.4024 0001214 349.3948  10.7111  1.70474038 49952"}}, "geometry": {"type": "Point", "coordinates": [-166.96510989233224, -38.275679375935304]}}, {"type": "Feature", "properties": {"norad_id": 43056, "name": "GSAT0216 (GALILEO 20)", "group": "galileo", "lat": 37.40136386480871, "lon": 14.197811024500588, "alt_km": 23224.468575533436, "timestamp": "2025-12-21T18:54:58.759730+00:00", "meta": {"OBJECT_NAME": "GSAT0216 (GALILEO 20)", "OBJECT_ID": "2017-079B", "EPOCH": "2025-12-19T19:30:44.926272", "MEAN_MOTION": 1.70474153, "ECCENTRICITY": 0.00023685, "INCLINATION": 55.1281, "RA_OF_ASC_NODE": 226.4428, "ARG_OF_PERICENTER": 323.7267, "MEAN_ANOMALY": 36.3665, "EPHEMERIS_TYPE": 0, "CLASSIFICATION_TYPE": "U", "NORAD_CAT_ID": 43056, "ELEMENT_SET_NO": 999, "REV_AT_EPOCH": 4994, "BSTAR": 0, "MEAN_MOTION_DOT": 6.9e-07, "MEAN_MOTION_DDOT": 0}, "tle": {"line1": "1 43056U 17079B   25353.81301998  .00000069  00000+0  00000+0 0  9992", "line2": "2 43056  55.1281 226.4428 0002368 323.7267  36.3665  1.70474153 49946"}}, "geometry": {"type": "Point", "coordinates": [14.197811024500588, 37.40136386480871]}}, {"type": "Feature", "properties": {"norad_id": 43057, "name": "GSAT0217 (GALILEO 21)", "group": "galileo", "lat": -2.6725409223092313, "lon": -135.46229157112774, "alt_km": 23214.75966289352, "timestamp": "2025-12-21T18:54:58.759741+00:00", "meta": {"OBJECT_NAME": "GSAT0217 (GALILEO 21)", "OBJECT_ID": "2017-079C", "EPOCH": "2025-12-21T04:57:56.651616", "MEAN_MOTION": 1.70474014, "ECCENTRICITY": 0.00027256, "INCLINATION": 55.1257, "RA_OF_ASC_NODE": 226.4024, "ARG_OF_PERICENTER": 351.227, "MEAN_ANOMALY": 8.8769, "EPHEMERIS_TYPE": 0, "CLASSIFICATION_TYPE": "U", "NORAD_CAT_ID": 43057, "ELEMENT_SET_NO": 999, "REV_AT_EPOCH": 4995, "BSTAR": 0, "MEAN_MOTION_DOT": 7.3e-07, "MEAN_MOTION_DDOT": 0}, "tle": {"line1": "1 43057U 17079C   25355.20690569  .00000073  00000+0  00000+0 0  9998", "line2": "2 43057  55.1257 226.4024 0002725 351.2270   8.8769  1.70474014 49955"}}, "geometry": {"type": "Point", "coordinates": [-135.46229157112774, -2.6725409223092313]}}]}